GLOBALSTAR M075         
1 37192U 10054E   25149.54494784 -.00000063  00000+0  22709-3 0  9990
2 37192  51.9942 238.2986 0000468 128.8264 244.4748 12.62265316673497
GLOBALSTAR M073         
1 37193U 10054F   25149.57651483 -.00000114  00000+0 -57271-4 0  9996
2 37193  52.0032 152.0069 0000163 331.5102 184.7083 12.62271926675530
GLOBALSTAR M083         
1 37739U 11033A   25149.27490896 -.00000112  00000+0 -46577-4 0  9991
2 37739  51.9854 101.6809 0000286  63.4778 101.3536 12.62263536644468
GLOBALSTAR M088         
1 37740U 11033B   25149.32874403 -.00000082  00000+0  11921-3 0  9998
2 37740  52.0068   7.0429 0000901  82.1315  88.1519 12.62245310640015
GLOBALSTAR M091         
1 37741U 11033C   25149.26285848 -.00000090  00000+0  78478-4 0  9991
2 37741  52.0010 330.7473 0000936 115.5111  55.1336 12.62268173640799
GLOBALSTAR M085         
1 37742U 11033D   25149.29184417 -.00000078  00000+0  14610-3 0  9998
2 37742  51.9872 281.7134 0000810 134.0828 228.7258 12.62268707641318
GLOBALSTAR M081         
1 37743U 11033E   25149.63753067 -.00000087  00000+0  95976-4 0  9995
2 37743  51.9964 283.4378 0000624 137.1957 236.2136 12.62264171641882
GLOBALSTAR M089         
1 37744U 11033F   25149.28174206 -.00000059  00000+0  24867-3 0  9998
2 37744  51.9925 238.7509 0000318 102.3562 274.9268 12.62264262642309
